{"type": "FeatureCollection", "features": [ {"type": "Feature", "properties": {"norad_id": 43437, "name": "SENTINEL-3B", "group": "resource", "lat": -16.288022439474737, "lon": 60.45274163493042, "alt_km": 807.8536649063908, "timestamp": "2025-12-18T19:29:52.200720+00:00", "meta": {"OBJECT_NAME": "SENTINEL-3B", "OBJECT_ID": "2018-039A", "EPOCH": "2025-12-18T04:25:36.607872", "MEAN_MOTION": 14.26736083, "ECCENTRICITY": 0.00016153, "INCLINATION": 98.6262, "RA_OF_ASC_NODE": 57.2917, "ARG_OF_PERICENTER": 96.1081, "MEAN_ANOMALY": 264.0284, "EPHEMERIS_TYPE": 0, "CLASSIFICATION_TYPE": "U", "NORAD_CAT_ID": 43437, "ELEMENT_SET_NO": 999, "REV_AT_EPOCH": 39831, "BSTAR": 6.7707414e-05, "MEAN_MOTION_DOT": 1.2e-06, "MEAN_MOTION_DDOT": 0}, "tle": {"line1": "1 43437U 18039A   25352.18445148  .00000120  00000+0  67707-4 0  9997", "line2": "2 43437  98.6262  57.2917 0001615  96.1081 264.0284 14.26736083398315"}}, "geometry": {"type": "Point", "coordinates": [60.45274163493042, -16.288022439474737]}}, {"type": "Feature", "properties": {"norad_id": 43461, "name": "GAOFEN-5 01", "group": "resource", "lat": -12.066420186170607, "lon": -42.29687736767319, "alt_km": 695.8743846906964, "timestamp": "2025-12-18T19:29:52.200730+00:00", "meta": {"OBJECT_NAME": "GAOFEN-5 01", "OBJECT_ID": "2018-043A", "EPOCH": "2025-12-17T22:10:37.827552", "MEAN_MOTION": 14.60415423, "ECCENTRICITY": 6.462e-05, "INCLINATION": 98.4331, "RA_OF_ASC_NODE": 314.9819, "ARG_OF_PERICENTER": 313.2433, "MEAN_ANOMALY": 46.8713, "EPHEMERIS_TYPE": 0, "CLASSIFICATION_TYPE": "U", "NORAD_CAT_ID": 43461, "ELEMENT_SET_NO": 999, "REV_AT_EPOCH": 40523, "BSTAR": 8.6662537e-05, "MEAN_MOTION_DOT": 3.71e-06, "MEAN_MOTION_DDOT": 0}, "tle": {"line1": "1 43461U 18043A   25351.92404893  .00000371  00000+0  86663-4 0  9992", "line2": "2 43461  98.4331 314.9819 0000646 313.2433  46.8713 14.60415423405231"}}, "geometry": {"type": "Point", "coordinates": [-42.29687736767319, -12.066420186170607]}}, {"type": "Feature", "properties": {"norad_id": 43484, "name": "GAOFEN-6", "group": "resource", "lat": -24.19671941928268, "lon": 60.408421011990754, "alt_km": 642.5665860540275, "timestamp": "2025-12-18T19:29:52.200740+00:00", "meta": {"OBJECT_NAME": "GAOFEN-6", "OBJECT_ID": "2018-048A", "EPOCH": "2025-12-18T06:35:49.747776", "MEAN_MOTION": 14.76575772, "ECCENTRICITY": 0.0012959, "INCLINATION": 97.8031, "RA_OF_ASC_NODE": 56.3562, "ARG_OF_PERICENTER": 47.2559, "MEAN_ANOMALY": 312.9739, "EPHEMERIS_TYPE": 0, "CLASSIFICATION_TYPE": "U", "NORAD_CAT_ID": 43484, "ELEMENT_SET_NO": 999, "REV_AT_EPOCH": 40669, "BSTAR": 8.9613211e-05, "MEAN_MOTION_DOT": 5.77e-06, "MEAN_MOTION_DDOT": 0}, "tle": {"line1": "1 43484U 18048A   25352.27488134  .00000577  00000+0  89613-4 0  9997", "line2": "2 43484  97.8031  56.3562 0012959  47.2559 312.9739 14.76575772406698"}}, "geometry": {"type": "Point", "coordinates": [60.408421011990754, -24.19671941928268]}}, {"type": "Feature", "properties": {"norad_id": 43585, "name": "GAOFEN-11 01", "group": "resource", "lat": -68.97170340799364, "lon": 74.7732793939737, "alt_km": 423.0565758407947, "timestamp": "2025-12-18T19:29:52.200750+00:00", "meta": {"OBJECT_NAME": "GAOFEN-11 01", "OBJECT_ID": "2018-063A", "EPOCH": "2025-12-18T07:23:59.954784", "MEAN_MOTION": 15.49379628, "ECCENTRICITY": 0.00040599, "INCLINATION": 97.1562, "RA_OF_ASC_NODE": 55.1969, "ARG_OF_PERICENTER": 284.6905, "MEAN_ANOMALY": 75.3897, "EPHEMERIS_TYPE": 0, "CLASSIFICATION_TYPE": "U", "NORAD_CAT_ID": 43585, "ELEMENT_SET_NO": 999, "REV_AT_EPOCH": 41228, "BSTAR": 0.00029352342, "MEAN_MOTION_DOT": 0.00016019, "MEAN_MOTION_DDOT": 0}, "tle": {"line1": "1 43585U 18063A   25352.30833281  .00016019  00000+0  29352-3 0  9998", "line2": "2 43585  97.1562  55.1969 0004059 284.6905  75.3897 15.49379628412284"}}, "geometry": {"type": "Point", "coordinates": [74.7732793939737, -68.97170340799364]}}, {"type": "Feature", "properties": {"norad_id": 43613, "name": "ICESAT-2", "group": "resource", "lat": -74.47800663956099, "lon": -110.37696158994231, "alt_km": 490.1060708166351, "timestamp": "2025-12-18T19:29:52.200760+00:00", "meta": {"OBJECT_NAME": "ICESAT-2", "OBJECT_ID": "2018-070A", "EPOCH": "2025-12-18T05:40:50.866176", "MEAN_MOTION": 15.28289744, "ECCENTRICITY": 0.00027969, "INCLINATION": 92.0052, "RA_OF_ASC_NODE": 242.2206, "ARG_OF_PERICENTER": 129.3374, "MEAN_ANOMALY": 230.8124, "EPHEMERIS_TYPE": 0, "CLASSIFICATION_TYPE": "U", "NORAD_CAT_ID": 43613, "ELEMENT_SET_NO": 999, "REV_AT_EPOCH": 40482, "BSTAR": 0.0004056309, "MEAN_MOTION_DOT": 0.00011177, "MEAN_MOTION_DDOT": 0}, "tle": {"line1": "1 43613U 18070A   25352.23669984  .00011177  00000+0  40563-3 0  9994", "line2": "2 43613  92.0052 242.2206 0002796 129.3374 230.8124 15.28289744404826"}}, "geometry": {"type": "Point", "coordinates": [-110.37696158994231, -74.47800663956099]}}, {"type": "Feature", "properties": {"norad_id": 43719, "name": "HYSIS", "group": "resource", "lat": 55.791190626859155, "lon": 43.806854078062415, "alt_km": 627.4574174436693, "timestamp": "2025-12-18T19:29:52.200769+00:00", "meta": {"OBJECT_NAME": "HYSIS", "OBJECT_ID": "2018-096A", "EPOCH": "2025-12-18T07:52:26.895648", "MEAN_MOTION": 14.78659109, "ECCENTRICITY": 0.00011306, "INCLINATION": 98.0097, "RA_OF_ASC_NODE": 55.2788, "ARG_OF_PERICENTER": 50.4349, "MEAN_ANOMALY": 309.6962, "EPHEMERIS_TYPE": 0, "CLASSIFICATION_TYPE": "U", "NORAD_CAT_ID": 43719, "ELEMENT_SET_NO": 999, "REV_AT_EPOCH": 38069, "BSTAR": 9.9352448e-05, "MEAN_MOTION_DOT": 6.76e-06, "MEAN_MOTION_DDOT": 0}, "tle": {"line1": "1 43719U 18096A   25352.32808907  .00000676  00000+0  99352-4 0  9992", "line2": "2 43719  98.0097  55.2788 0001130  50.4349 309.6962 14.78659109380695"}}, "geometry": {"type": "Point", "coordinates": [43.806854078062415, 55.791190626859155]}}, {"type": "Feature", "properties": {"norad_id": 43783, "name": "KAZSTSAT", "group": "resource", "lat": 24.33765635007396, "lon": 24.341423902257095, "alt_km": 567.632578982274, "timestamp": "2025-12-18T19:29:52.200779+00:00", "meta": {"OBJECT_NAME": "KAZSTSAT", "OBJECT_ID": "2018-099AB", "EPOCH": "2025-12-18T01:46:12.639360", "MEAN_MOTION": 14.99362762, "ECCENTRICITY": 0.00059217, "INCLINATION": 97.4539, "RA_OF_ASC_NODE": 27.0295, "ARG_OF_PERICENTER": 306.4934, "MEAN_ANOMALY": 53.5744, "EPHEMERIS_TYPE": 0, "CLASSIFICATION_TYPE": "U", "NORAD_CAT_ID": 43783, "ELEMENT_SET_NO": 999, "REV_AT_EPOCH": 38416, "BSTAR": 4.2838282e-05, "MEAN_MOTION_DOT": 4.68e-06, "MEAN_MOTION_DDOT": 0}, "tle": {"line1": "1 43783U 18099AB  25352.07375740  .00000468  00000+0  42838-4 0  9998", "line2": "2 43783  97.4539  27.0295 0005921 306.4934  53.5744 14.99362762384164"}}, "geometry": {"type": "Point", "coordinates": [24.341423902257095, 24.33765635007396]}}, {"type": "Feature", "properties": {"norad_id": 43831, "name": "SAUDISAT 5A", "group": "resource", "lat": -66.8597521979347, "lon": 70.42953405940686, "alt_km": 500.42878853608727, "timestamp": "2025-12-18T19:29:52.200789+00:00", "meta": {"OBJECT_NAME": "SAUDISAT 5A", "OBJECT_ID": "2018-102A", "EPOCH": "2025-12-18T07:12:11.536128", "MEAN_MOTION": 15.2572467, "ECCENTRICITY": 0.00115157, "INCLINATION": 97.3351, "RA_OF_ASC_NODE": 52.3843, "ARG_OF_PERICENTER": 59.1257, "MEAN_ANOMALY": 301.1113, "EPHEMERIS_TYPE": 0, "CLASSIFICATION_TYPE": "U", "NORAD_CAT_ID": 43831, "ELEMENT_SET_NO": 999, "REV_AT_EPOCH": 38807, "BSTAR": 0.00020692232, "MEAN_MOTION_DOT": 5.214e-05, "MEAN_MOTION_DDOT": 0}, "tle": {"line1": "1 43831U 18102A   25352.30013352  .00005214  00000+0  20692-3 0  9998", "line2": "2 43831  97.3351  52.3843 0011515  59.1257 301.1113 15.25724670388071"}}, "geometry": {"type": "Point", "coordinates": [70.42953405940686, -66.8597521979347]}}, {"type": "Feature", "properties": {"norad_id": 43833, "name": "SAUDISAT 5B", "group": "resource", "lat": -8.114793198137676, "lon": 56.68999456766104, "alt_km": 488.40942579022976, "timestamp": "2025-12-18T19:29:52.200799+00:00", "meta": {"OBJECT_NAME": "SAUDISAT 5B", "OBJECT_ID": "2018-102C", "EPOCH": "2025-12-18T06:56:39.109056", "MEAN_MOTION": 15.26074824, "ECCENTRICITY": 0.00122596, "INCLINATION": 97.3447, "RA_OF_ASC_NODE": 55.1222, "ARG_OF_PERICENTER": 61.3175, "MEAN_ANOMALY": 298.9294, "EPHEMERIS_TYPE": 0, "CLASSIFICATION_TYPE": "U", "NORAD_CAT_ID": 43833, "ELEMENT_SET_NO": 999, "REV_AT_EPOCH": 38818, "BSTAR": 0.00020060512, "MEAN_MOTION_DOT": 5.108e-05, "MEAN_MOTION_DDOT": 0}, "tle": {"line1": "1 43833U 18102C   25352.28934154  .00005108  00000+0  20061-3 0  9991", "line2": "2 43833  97.3447  55.1222 0012259  61.3175 298.9294 15.26074824388186"}}, "geometry": {"type": "Point", "coordinates": [56.68999456766104, -8.114793198137676]}}, {"type": "Feature", "properties": {"norad_id": 44622, "name": "GAOFEN-10R", "group": "resource", "lat": 70.06220905973319, "lon": -82.55595696215181, "alt_km": 610.1209519945105, "timestamp": "2025-12-18T19:29:52.200809+00:00", "meta": {"OBJECT_NAME": "GAOFEN-10R", "OBJECT_ID": "2019-066A", "EPOCH": "2025-12-18T07:50:21.956928", "MEAN_MOTION": 14.82810995, "ECCENTRICITY": 0.00075057, "INCLINATION": 98.0284, "RA_OF_ASC_NODE": 299.8547, "ARG_OF_PERICENTER": 25.8168, "MEAN_ANOMALY": 334.3418, "EPHEMERIS_TYPE": 0, "CLASSIFICATION_TYPE": "U", "NORAD_CAT_ID": 44622, "ELEMENT_SET_NO": 999, "REV_AT_EPOCH": 33557, "BSTAR": 0.00016562957, "MEAN_MOTION_DOT": 1.286e-05, "MEAN_MOTION_DDOT": 0}, "tle": {"line1": "1 44622U 19066A   25352.32664302  .00001286  00000+0  16563-3 0  9993", "line2": "2 44622  98.0284 299.8547 0007505  25.8168 334.3418 14.82810995335578"}}, "geometry": {"type": "Point", "coordinates": [-82.55595696215181, 70.06220905973319]}}]}